start=new Date('2023-06-10T00:00:00.000Z').valueOf();
sats=[{"PERIOD":"95.591","CENTER_NAME":"EARTH","RCS_SIZE":"LARGE","SEMIMAJOR_AXIS":"6925.270","MEAN_MOTION_DOT":"0.00017857","ECCENTRICITY":"0.00010170","NORAD_CAT_ID":"45386","OBJECT_ID":"2020-019AC","DECAY_DATE":null,"ELEMENT_SET_NO":"999","PERIAPSIS":"546.430","APOAPSIS":"547.839","OBJECT_NAME":"STARLINK-1272","MEAN_MOTION_DDOT":"0.0000000000000","FILE":"3929125","BSTAR":"0.00121380000000","ARG_OF_PERICENTER":"98.7729","GP_ID":"233576639","SITE":"AFETR","OBJECT_TYPE":"PAYLOAD","LAUNCH_DATE":"2020-03-18","REV_AT_EPOCH":"17869","MEAN_MOTION":"15.06425703","RA_OF_ASC_NODE":"333.3449","CLASSIFICATION_TYPE":"U","TLE_LINE1":"1 45386U 20019AC  23160.78041187  .00017857  00000-0  12138-2 0  9991","EPOCH":"2023-06-09T18:43:47.585568","TIME_SYSTEM":"UTC","MEAN_ANOMALY":"261.3376","MEAN_ELEMENT_THEORY":"SGP4","INCLINATION":"53.0543","TLE_LINE2":"2 45386  53.0543 333.3449 0001017  98.7729 261.3376 15.06425703178690","EPHEMERIS_TYPE":"0","REF_FRAME":"TEME","COUNTRY_CODE":"US"},{"OBJECT_ID":"2020-019AD","DECAY_DATE":null,"ELEMENT_SET_NO":"999","PERIAPSIS":"546.362","APOAPSIS":"547.938","OBJECT_NAME":"STARLINK-1274","PERIOD":"95.591","CENTER_NAME":"EARTH","RCS_SIZE":"LARGE","SEMIMAJOR_AXIS":"6925.285","ECCENTRICITY":"0.00011380","MEAN_MOTION_DOT":"0.00020099","NORAD_CAT_ID":"45387","RA_OF_ASC_NODE":"333.5391","TLE_LINE1":"1 45387U 20019AD  23160.73618790  .00020099  00000-0  13636-2 0  9993","EPOCH":"2023-06-09T17:40:06.634560","CLASSIFICATION_TYPE":"U","TIME_SYSTEM":"UTC","MEAN_ANOMALY":"288.3927","MEAN_ELEMENT_THEORY":"SGP4","INCLINATION":"53.0543","TLE_LINE2":"2 45387  53.0543 333.5391 0001138  71.7186 288.3927 15.06420787178688","EPHEMERIS_TYPE":"0","REF_FRAME":"TEME","COUNTRY_CODE":"US","MEAN_MOTION_DDOT":"0.0000000000000","BSTAR":"0.00136360000000","FILE":"3929125","ARG_OF_PERICENTER":"71.7186","GP_ID":"233576888","SITE":"AFETR","OBJECT_TYPE":"PAYLOAD","LAUNCH_DATE":"2020-03-18","REV_AT_EPOCH":"17868","MEAN_MOTION":"15.06420787"},{"RA_OF_ASC_NODE":"353.6796","TLE_LINE1":"1 45388U 20019AE  23160.70485203  .00013039  00000-0  89223-3 0  9994","CLASSIFICATION_TYPE":"U","EPOCH":"2023-06-09T16:54:59.215392","MEAN_ANOMALY":"267.0713","MEAN_ELEMENT_THEORY":"SGP4","TIME_SYSTEM":"UTC","INCLINATION":"53.0554","EPHEMERIS_TYPE":"0","TLE_LINE2":"2 45388  53.0554 353.6796 0001024  93.0393 267.0713 15.06416595178391","COUNTRY_CODE":"US","REF_FRAME":"TEME","BSTAR":"0.00089223000000","FILE":"3929125","MEAN_MOTION_DDOT":"0.0000000000000","ARG_OF_PERICENTER":"93.0393","GP_ID":"233575638","SITE":"AFETR","OBJECT_TYPE":"PAYLOAD","LAUNCH_DATE":"2020-03-18","MEAN_MOTION":"15.06416595","REV_AT_EPOCH":"17839","DECAY_DATE":null,"OBJECT_ID":"2020-019AE","PERIAPSIS":"546.454","ELEMENT_SET_NO":"999","APOAPSIS":"547.872","OBJECT_NAME":"STARLINK-1280","PERIOD":"95.591","CENTER_NAME":"EARTH","RCS_SIZE":"LARGE","SEMIMAJOR_AXIS":"6925.298","ECCENTRICITY":"0.00010240","MEAN_MOTION_DOT":"0.00013039","NORAD_CAT_ID":"45388"},{"TIME_SYSTEM":"UTC","MEAN_ANOMALY":"297.3858","MEAN_ELEMENT_THEORY":"SGP4","TLE_LINE1":"1 45389U 20019AF  23160.88361983  .00020759  00000-0  14075-2 0  9991","CLASSIFICATION_TYPE":"U","EPOCH":"2023-06-09T21:12:24.753312","RA_OF_ASC_NODE":"332.8807","REF_FRAME":"TEME","COUNTRY_CODE":"US","TLE_LINE2":"2 45389  53.0540 332.8807 0001368  62.7270 297.3858 15.06423888178712","EPHEMERIS_TYPE":"0","INCLINATION":"53.0540","SITE":"AFETR","GP_ID":"233575888","ARG_OF_PERICENTER":"62.7270","MEAN_MOTION_DDOT":"0.0000000000000","FILE":"3929125","BSTAR":"0.00140750000000","REV_AT_EPOCH":"17871","MEAN_MOTION":"15.06423888","LAUNCH_DATE":"2020-03-18","OBJECT_TYPE":"PAYLOAD","PERIAPSIS":"546.193","ELEMENT_SET_NO":"999","OBJECT_ID":"2020-019AF","DECAY_DATE":null,"OBJECT_NAME":"STARLINK-1283","APOAPSIS":"548.088","SEMIMAJOR_AXIS":"6925.275","RCS_SIZE":"LARGE","CENTER_NAME":"EARTH","PERIOD":"95.591","NORAD_CAT_ID":"45389","MEAN_MOTION_DOT":"0.00020759","ECCENTRICITY":"0.00013680"},{"SEMIMAJOR_AXIS":"6925.272","PERIOD":"95.591","CENTER_NAME":"EARTH","RCS_SIZE":"LARGE","NORAD_CAT_ID":"45390","MEAN_MOTION_DOT":"0.00018131","ECCENTRICITY":"0.00009740","OBJECT_ID":"2020-019AG","DECAY_DATE":null,"PERIAPSIS":"546.462","ELEMENT_SET_NO":"999","OBJECT_NAME":"STARLINK-1284","APOAPSIS":"547.811","GP_ID":"233576139","SITE":"AFETR","MEAN_MOTION_DDOT":"0.0000000000000","FILE":"3929125","BSTAR":"0.00123210000000","ARG_OF_PERICENTER":"103.0109","LAUNCH_DATE":"2020-03-18","REV_AT_EPOCH":"17870","MEAN_MOTION":"15.06425055","OBJECT_TYPE":"PAYLOAD","CLASSIFICATION_TYPE":"U","TLE_LINE1":"1 45390U 20019AG  23160.85781423  .00018131  00000-0  12321-2 0  9998","EPOCH":"2023-06-09T20:35:15.149472","TIME_SYSTEM":"UTC","MEAN_ANOMALY":"257.0989","MEAN_ELEMENT_THEORY":"SGP4","RA_OF_ASC_NODE":"332.9949","TLE_LINE2":"2 45390  53.0543 332.9949 0000974 103.0109 257.0989 15.06425055178702","EPHEMERIS_TYPE":"0","REF_FRAME":"TEME","COUNTRY_CODE":"US","INCLINATION":"53.0543"},{"SEMIMAJOR_AXIS":"6925.333","CENTER_NAME":"EARTH","RCS_SIZE":"LARGE","PERIOD":"95.592","NORAD_CAT_ID":"45391","MEAN_MOTION_DOT":"0.00004003","ECCENTRICITY":"0.00012750","ELEMENT_SET_NO":"999","PERIAPSIS":"546.315","DECAY_DATE":null,"OBJECT_ID":"2020-019AH","OBJECT_NAME":"STARLINK-1289","APOAPSIS":"548.081","SITE":"AFETR","GP_ID":"233576388","ARG_OF_PERICENTER":"82.0251","BSTAR":"0.00028742000000","FILE":"3929125","MEAN_MOTION_DDOT":"0.0000000000000","MEAN_MOTION":"15.06405109","REV_AT_EPOCH":"17843","LAUNCH_DATE":"2020-03-18","OBJECT_TYPE":"PAYLOAD","MEAN_ELEMENT_THEORY":"SGP4","MEAN_ANOMALY":"278.0883","TIME_SYSTEM":"UTC","TLE_LINE1":"1 45391U 20019AH  23160.87161728  .00004003  00000-0  28742-3 0  9999","CLASSIFICATION_TYPE":"U","EPOCH":"2023-06-09T20:55:07.732992","RA_OF_ASC_NODE":"332.9201","COUNTRY_CODE":"US","REF_FRAME":"TEME","EPHEMERIS_TYPE":"0","TLE_LINE2":"2 45391  53.0546 332.9201 0001275  82.0251 278.0883 15.06405109178430","INCLINATION":"53.0546"},{"NORAD_CAT_ID":"45392","MEAN_MOTION_DOT":"0.00115005","ECCENTRICITY":"0.00030810","SEMIMAJOR_AXIS":"6819.610","PERIOD":"93.411","CENTER_NAME":"EARTH","RCS_SIZE":"LARGE","OBJECT_NAME":"STARLINK-1290","APOAPSIS":"443.576","OBJECT_ID":"2020-019AJ","DECAY_DATE":null,"PERIAPSIS":"439.374","ELEMENT_SET_NO":"999","LAUNCH_DATE":"2020-03-18","REV_AT_EPOCH":"17912","MEAN_MOTION":"15.41570837","OBJECT_TYPE":"PAYLOAD","GP_ID":"233543365","SITE":"AFETR","MEAN_MOTION_DDOT":"0.0000000000000","FILE":"3928876","BSTAR":"0.00266400000000","ARG_OF_PERICENTER":"165.8301","TLE_LINE2":"2 45392  52.9799 276.9004 0003081 165.8301 194.2789 15.41570837179121","EPHEMERIS_TYPE":"0","REF_FRAME":"TEME","COUNTRY_CODE":"US","INCLINATION":"52.9799","TLE_LINE1":"1 45392U 20019AJ  23160.60883884  .00115005  00000-0  26640-2 0  9994","CLASSIFICATION_TYPE":"U","EPOCH":"2023-06-09T14:36:43.675776","TIME_SYSTEM":"UTC","MEAN_ELEMENT_THEORY":"SGP4","MEAN_ANOMALY":"194.2789","RA_OF_ASC_NODE":"276.9004"},{"DECAY_DATE":null,"OBJECT_ID":"2020-019AK","PERIAPSIS":"546.751","ELEMENT_SET_NO":"999","OBJECT_NAME":"STARLINK-1291","APOAPSIS":"547.469","SEMIMAJOR_AXIS":"6925.245","PERIOD":"95.590","RCS_SIZE":"LARGE","CENTER_NAME":"EARTH","NORAD_CAT_ID":"45393","ECCENTRICITY":"0.00005180","MEAN_MOTION_DOT":"0.00024043","EPOCH":"2023-06-09T18:27:52.414560","TLE_LINE1":"1 45393U 20019AK  23160.76935665  .00024043  00000-0  16260-2 0  9995","CLASSIFICATION_TYPE":"U","MEAN_ANOMALY":"291.3858","MEAN_ELEMENT_THEORY":"SGP4","TIME_SYSTEM":"UTC","RA_OF_ASC_NODE":"333.3916","EPHEMERIS_TYPE":"0","TLE_LINE2":"2 45393  53.0545 333.3916 0000518  68.7186 291.3858 15.06433716178453","COUNTRY_CODE":"US","REF_FRAME":"TEME","INCLINATION":"53.0545","GP_ID":"233575388","SITE":"AFETR","FILE":"3929125","BSTAR":"0.00162600000000","MEAN_MOTION_DDOT":"0.0000000000000","ARG_OF_PERICENTER":"68.7186","LAUNCH_DATE":"2020-03-18","MEAN_MOTION":"15.06433716","REV_AT_EPOCH":"17845","OBJECT_TYPE":"PAYLOAD"},{"MEAN_MOTION_DDOT":"0.0000000000000","FILE":"3929125","BSTAR":"0.00109820000000","ARG_OF_PERICENTER":"96.5196","GP_ID":"233576640","SITE":"AFETR","OBJECT_TYPE":"PAYLOAD","LAUNCH_DATE":"2020-03-18","REV_AT_EPOCH":"17841","MEAN_MOTION":"15.06416730","RA_OF_ASC_NODE":"333.8532","TLE_LINE1":"1 45394U 20019AL  23160.66615313  .00016121  00000-0  10982-2 0  9993","CLASSIFICATION_TYPE":"U","EPOCH":"2023-06-09T15:59:15.630432","TIME_SYSTEM":"UTC","MEAN_ANOMALY":"263.5936","MEAN_ELEMENT_THEORY":"SGP4","INCLINATION":"53.0554","TLE_LINE2":"2 45394  53.0554 333.8532 0001253  96.5196 263.5936 15.06416730178411","EPHEMERIS_TYPE":"0","REF_FRAME":"TEME","COUNTRY_CODE":"US","PERIOD":"95.591","RCS_SIZE":"LARGE","CENTER_NAME":"EARTH","SEMIMAJOR_AXIS":"6925.297","MEAN_MOTION_DOT":"0.00016121","ECCENTRICITY":"0.00012530","NORAD_CAT_ID":"45394","OBJECT_ID":"2020-019AL","DECAY_DATE":null,"ELEMENT_SET_NO":"999","PERIAPSIS":"546.295","APOAPSIS":"548.030","OBJECT_NAME":"STARLINK-1292"},{"MEAN_MOTION":"15.06423574","REV_AT_EPOCH":"17787","LAUNCH_DATE":"2020-03-18","OBJECT_TYPE":"PAYLOAD","SITE":"AFETR","GP_ID":"233576889","ARG_OF_PERICENTER":"95.0158","BSTAR":"0.00144840000000","FILE":"3929125","MEAN_MOTION_DDOT":"0.0000000000000","COUNTRY_CODE":"US","REF_FRAME":"TEME","EPHEMERIS_TYPE":"0","TLE_LINE2":"2 45395  53.0542 333.4245 0001088  95.0158 265.0956 15.06423574177876","INCLINATION":"53.0542","MEAN_ELEMENT_THEORY":"SGP4","MEAN_ANOMALY":"265.0956","TIME_SYSTEM":"UTC","EPOCH":"2023-06-09T18:17:15.389952","TLE_LINE1":"1 45395U 20019AM  23160.76198368  .00021372  00000-0  14484-2 0  9996","CLASSIFICATION_TYPE":"U","RA_OF_ASC_NODE":"333.4245","NORAD_CAT_ID":"45395","ECCENTRICITY":"0.00010880","MEAN_MOTION_DOT":"0.00021372","SEMIMAJOR_AXIS":"6925.276","RCS_SIZE":"LARGE","CENTER_NAME":"EARTH","PERIOD":"95.591","OBJECT_NAME":"STARLINK-1297","APOAPSIS":"547.895","ELEMENT_SET_NO":"999","PERIAPSIS":"546.388","DECAY_DATE":null,"OBJECT_ID":"2020-019AM"}];
